ONEWEB-0349             
1 49281U 21090C   25118.15630040  .00000120  00000+0  26400-3 0  9999
2 49281  87.9309 357.0864 0001698  82.8403 277.2923 13.20770344175044
ONEWEB-0353             
1 49282U 21090D   25118.44489451  .00000098  00000+0  23018-3 0  9996
2 49282  87.9083  12.2012 0001720  70.7832 289.3484 13.14502324173090
ONEWEB-0356             
1 49283U 21090E   25118.38200122  .00000055  00000+0  10395-3 0  9993
2 49283  87.9305 357.0333 0002647  74.5517 285.5908 13.20770827175076
ONEWEB-0358             
1 49284U 21090F   25118.94228880  .00000027  00000+0  33866-4 0  9995
2 49284  87.9307 356.9116 0001894  83.7873 276.3476 13.20766549175878
ONEWEB-0359             
1 49285U 21090G   25119.16640482  .00000063  00000+0  12427-3 0  9996
2 49285  87.9306 356.8803 0001977  93.2812 266.8548 13.20771085177160
ONEWEB-0360             
1 49286U 21090H   25118.62663568  .00000030  00000+0  40725-4 0  9994
2 49286  87.9309 356.9930 0001841  85.8744 274.2599 13.20771079175123
ONEWEB-0361             
1 49287U 21090J   25119.21375194  .00000053  00000+0  99579-4 0  9992
2 49287  87.9305 356.8717 0001975  79.4808 280.6548 13.20772002176482
ONEWEB-0362             
1 49288U 21090K   25118.30773203  .00000146  00000+0  33311-3 0  9999
2 49288  87.9260  27.4570 0001650  82.3986 277.7334 13.19727359172198
